CCSDS_OMM_VERS = 2.0
CREATION_DATE  = 
ORIGINATOR     = 

OBJECT_NAME    = SL-16 R/B
OBJECT_ID      = 1998-045B
CENTER_NAME    = EARTH
REF_FRAME      = TEME
TIME_SYSTEM    = UTC
MEAN_ELEMENT_THEORY = SGP/SGP4

EPOCH          = 2026-03-23T04:55:40.670976
MEAN_MOTION    = 14.16195505
ECCENTRICITY   = .00076742
INCLINATION    = 71.0116
RA_OF_ASC_NODE = 153.1532
ARG_OF_PERICENTER = 346.6411
MEAN_ANOMALY   = 13.4508

EPHEMERIS_TYPE = 0
CLASSIFICATION_TYPE = U
NORAD_CAT_ID   = 25407
ELEMENT_SET_NO = 999
REV_AT_EPOCH   = 42901
BSTAR          = -.29109909E-4
MEAN_MOTION_DOT = -.105E-5
MEAN_MOTION_DDOT = 0

CCSDS_OMM_VERS = 2.0
CREATION_DATE  = 
ORIGINATOR     = 

OBJECT_NAME    = ISS (ZARYA)
OBJECT_ID      = 1998-067A
CENTER_NAME    = EARTH
REF_FRAME      = TEME
TIME_SYSTEM    = UTC
MEAN_ELEMENT_THEORY = SGP/SGP4

EPOCH          = 2026-03-23T04:41:36.951648
MEAN_MOTION    = 15.48483260
ECCENTRICITY   = .00061926
INCLINATION    = 51.6344
RA_OF_ASC_NODE = 5.5946
ARG_OF_PERICENTER = 222.9473
MEAN_ANOMALY   = 137.1033

EPHEMERIS_TYPE = 0
CLASSIFICATION_TYPE = U
NORAD_CAT_ID   = 25544
ELEMENT_SET_NO = 999
REV_AT_EPOCH   = 55842
BSTAR          = .32963634E-3
MEAN_MOTION_DOT = .17435E-3
MEAN_MOTION_DDOT = 0

CCSDS_OMM_VERS = 2.0
CREATION_DATE  = 
ORIGINATOR     = 

OBJECT_NAME    = CZ-4B R/B
OBJECT_ID      = 1999-025C
CENTER_NAME    = EARTH
REF_FRAME      = TEME
TIME_SYSTEM    = UTC
MEAN_ELEMENT_THEORY = SGP/SGP4

EPOCH          = 2026-03-23T03:23:05.196768
MEAN_MOTION    = 14.18267897
ECCENTRICITY   = .00361563
INCLINATION    = 98.6599
RA_OF_ASC_NODE = 126.1023
ARG_OF_PERICENTER = 307.2154
MEAN_ANOMALY   = 118.2710

EPHEMERIS_TYPE = 0
CLASSIFICATION_TYPE = U
NORAD_CAT_ID   = 25732
ELEMENT_SET_NO = 999
REV_AT_EPOCH   = 39007
BSTAR          = .38435411E-4
MEAN_MOTION_DOT = .36E-6
MEAN_MOTION_DDOT = 0

CCSDS_OMM_VERS = 2.0
CREATION_DATE  = 
ORIGINATOR     = 

OBJECT_NAME    = OKEAN-O
OBJECT_ID      = 1999-039A
CENTER_NAME    = EARTH
REF_FRAME      = TEME
TIME_SYSTEM    = UTC
MEAN_ELEMENT_THEORY = SGP/SGP4

EPOCH          = 2026-03-23T04:05:35.558016
MEAN_MOTION    = 14.80356426
ECCENTRICITY   = .00009298
INCLINATION    = 97.9414
RA_OF_ASC_NODE = 141.9232
ARG_OF_PERICENTER = 81.5659
MEAN_ANOMALY   = 278.5659

EPHEMERIS_TYPE = 0
CLASSIFICATION_TYPE = U
NORAD_CAT_ID   = 25860
ELEMENT_SET_NO = 999
REV_AT_EPOCH   = 43638
BSTAR          = .10327102E-3
MEAN_MOTION_DOT = .736E-5
MEAN_MOTION_DDOT = 0

CCSDS_OMM_VERS = 2.0
CREATION_DATE  = 
ORIGINATOR     = 

OBJECT_NAME    = SL-16 R/B
OBJECT_ID      = 1999-039B
CENTER_NAME    = EARTH
REF_FRAME      = TEME
TIME_SYSTEM    = UTC
MEAN_ELEMENT_THEORY = SGP/SGP4

EPOCH          = 2026-03-22T20:49:22.692864
MEAN_MOTION    = 14.81748750
ECCENTRICITY   = .0014101
INCLINATION    = 97.9938
RA_OF_ASC_NODE = 140.9429
ARG_OF_PERICENTER = 210.0978
MEAN_ANOMALY   = 149.9426

EPHEMERIS_TYPE = 0
CLASSIFICATION_TYPE = U
NORAD_CAT_ID   = 25861
ELEMENT_SET_NO = 999
REV_AT_EPOCH   = 43881
BSTAR          = .81211425E-4
MEAN_MOTION_DOT = .587E-5
MEAN_MOTION_DDOT = 0

CCSDS_OMM_VERS = 2.0
CREATION_DATE  = 
ORIGINATOR     = 

OBJECT_NAME    = DELTA 2 R/B
OBJECT_ID      = 1999-041E
CENTER_NAME    = EARTH
REF_FRAME      = TEME
TIME_SYSTEM    = UTC
MEAN_ELEMENT_THEORY = SGP/SGP4

EPOCH          = 2026-03-23T04:12:28.493856
MEAN_MOTION    = 14.11868911
ECCENTRICITY   = .05026167
INCLINATION    = 51.7602
RA_OF_ASC_NODE = 247.4098
ARG_OF_PERICENTER = 28.2101
MEAN_ANOMALY   = 334.5108

EPHEMERIS_TYPE = 0
CLASSIFICATION_TYPE = U
NORAD_CAT_ID   = 25876
ELEMENT_SET_NO = 999
REV_AT_EPOCH   = 36493
BSTAR          = .12335036E-3
MEAN_MOTION_DOT = .52E-5
MEAN_MOTION_DDOT = 0

CCSDS_OMM_VERS = 2.0
CREATION_DATE  = 
ORIGINATOR     = 

OBJECT_NAME    = HELIOS 1B
OBJECT_ID      = 1999-064A
CENTER_NAME    = EARTH
REF_FRAME      = TEME
TIME_SYSTEM    = UTC
MEAN_ELEMENT_THEORY = SGP/SGP4

EPOCH          = 2026-03-23T05:34:59.780640
MEAN_MOTION    = 14.87749474
ECCENTRICITY   = .00020739
INCLINATION    = 98.1680
RA_OF_ASC_NODE = 344.8731
ARG_OF_PERICENTER = 56.5102
MEAN_ANOMALY   = 303.6311

EPHEMERIS_TYPE = 0
CLASSIFICATION_TYPE = U
NORAD_CAT_ID   = 25977
ELEMENT_SET_NO = 999
REV_AT_EPOCH   = 68727
BSTAR          = .20866534E-3
MEAN_MOTION_DOT = .1845E-4
MEAN_MOTION_DDOT = 0

CCSDS_OMM_VERS = 2.0
CREATION_DATE  = 
ORIGINATOR     = 

OBJECT_NAME    = TERRA
OBJECT_ID      = 1999-068A
CENTER_NAME    = EARTH
REF_FRAME      = TEME
TIME_SYSTEM    = UTC
MEAN_ELEMENT_THEORY = SGP/SGP4

EPOCH          = 2026-03-23T06:31:39.103968
MEAN_MOTION    = 14.61028787
ECCENTRICITY   = .0003421
INCLINATION    = 97.9565
RA_OF_ASC_NODE = 135.1860
ARG_OF_PERICENTER = 122.6037
MEAN_ANOMALY   = 280.0120

EPHEMERIS_TYPE = 0
CLASSIFICATION_TYPE = U
NORAD_CAT_ID   = 25994
ELEMENT_SET_NO = 999
REV_AT_EPOCH   = 39706
BSTAR          = .11211204E-3
MEAN_MOTION_DOT = .506E-5
MEAN_MOTION_DDOT = 0

CCSDS_OMM_VERS = 2.0
CREATION_DATE  = 
ORIGINATOR     = 

OBJECT_NAME    = SL-16 R/B
OBJECT_ID      = 2000-006B
CENTER_NAME    = EARTH
REF_FRAME      = TEME
TIME_SYSTEM    = UTC
MEAN_ELEMENT_THEORY = SGP/SGP4

EPOCH          = 2026-03-23T05:22:58.047744
MEAN_MOTION    = 14.15824030
ECCENTRICITY   = .00160658
INCLINATION    = 71.0008
RA_OF_ASC_NODE = 69.3757
ARG_OF_PERICENTER = 168.8474
MEAN_ANOMALY   = 191.3009

EPHEMERIS_TYPE = 0
CLASSIFICATION_TYPE = U
NORAD_CAT_ID   = 26070
ELEMENT_SET_NO = 999
REV_AT_EPOCH   = 35047
BSTAR          = .78218838E-4
MEAN_MOTION_DOT = .106E-5
MEAN_MOTION_DDOT = 0

CCSDS_OMM_VERS = 2.0
CREATION_DATE  = 
ORIGINATOR     = 

OBJECT_NAME    = TITAN 4B R/B
OBJECT_ID      = 2000-047B
CENTER_NAME    = EARTH
REF_FRAME      = TEME
TIME_SYSTEM    = UTC
MEAN_ELEMENT_THEORY = SGP/SGP4

EPOCH          = 2026-03-23T05:06:06.921504
MEAN_MOTION    = 15.09689149
ECCENTRICITY   = .00395458
INCLINATION    = 67.9916
RA_OF_ASC_NODE = 2.4823
ARG_OF_PERICENTER = 19.5381
MEAN_ANOMALY   = 340.7273

EPHEMERIS_TYPE = 0
CLASSIFICATION_TYPE = U
NORAD_CAT_ID   = 26474
ELEMENT_SET_NO = 999
REV_AT_EPOCH   = 39495
BSTAR          = .31886684E-3
MEAN_MOTION_DOT = .511E-4
MEAN_MOTION_DDOT = 0

CCSDS_OMM_VERS = 2.0
CREATION_DATE  = 
ORIGINATOR     = 

OBJECT_NAME    = ENVISAT
OBJECT_ID      = 2002-009A
CENTER_NAME    = EARTH
REF_FRAME      = TEME
TIME_SYSTEM    = UTC
MEAN_ELEMENT_THEORY = SGP/SGP4

EPOCH          = 2026-03-23T03:51:32.447808
MEAN_MOTION    = 14.39041488
ECCENTRICITY   = .00012572
INCLINATION    = 98.3751
RA_OF_ASC_NODE = 35.4392
ARG_OF_PERICENTER = 81.6169
MEAN_ANOMALY   = 288.8612

EPHEMERIS_TYPE = 0
CLASSIFICATION_TYPE = U
NORAD_CAT_ID   = 27386
ELEMENT_SET_NO = 999
REV_AT_EPOCH   = 26111
BSTAR          = .57137407E-4
MEAN_MOTION_DOT = .134E-5
MEAN_MOTION_DDOT = 0

CCSDS_OMM_VERS = 2.0
CREATION_DATE  = 
ORIGINATOR     = 

OBJECT_NAME    = IDEFIX & ARIANE 42P R/B
OBJECT_ID      = 2002-021B
CENTER_NAME    = EARTH
REF_FRAME      = TEME
TIME_SYSTEM    = UTC
MEAN_ELEMENT_THEORY = SGP/SGP4

EPOCH          = 2026-03-23T01:26:49.354944
MEAN_MOTION    = 14.31034913
ECCENTRICITY   = .0012338
INCLINATION    = 98.5886
RA_OF_ASC_NODE = 20.5079
ARG_OF_PERICENTER = 143.4786
MEAN_ANOMALY   = 216.7241

EPHEMERIS_TYPE = 0
CLASSIFICATION_TYPE = U
NORAD_CAT_ID   = 27422
ELEMENT_SET_NO = 999
REV_AT_EPOCH   = 24593
BSTAR          = .12906169E-3
MEAN_MOTION_DOT = .296E-5
MEAN_MOTION_DDOT = 0

